{
  "type": "FeatureCollection",
  "name": "indian_fishing_ports",
  "crs": {
    "type": "name",
    "properties": {
      "name": "urn:ogc:def:crs:OGC:1.3:CRS84"
    }
  },
  "features": [
    {
      "type": "Feature",
      "geometry": {
        "type": "Point",
        "coordinates": [
          70.368,
          20.902
        ]
      },
      "properties": {
        "name": "Veraval Fishing Harbor",
        "harbour_type": "Major Fishing Harbor",
        "state": "Gujarat",
        "coordinates": [
          70.368,
          20.902
        ]
      }
    },
    {
      "type": "Feature",
      "geometry": {
        "type": "Point",
        "coordinates": [
          69.595,
          21.638
        ]
      },
      "properties": {
        "name": "Porbandar Subhash Nagar Harbor",
        "harbour_type": "Major Fishing Harbor",
        "state": "Gujarat",
        "coordinates": [
          69.595,
          21.638
        ]
      }
    },
    {
      "type": "Feature",
      "geometry": {
        "type": "Point",
        "coordinates": [
          69.075,
          22.47
        ]
      },
      "properties": {
        "name": "Okha Port & Fishing Jetty",
        "harbour_type": "Port & Fishing Jetty",
        "state": "Gujarat",
        "coordinates": [
          69.075,
          22.47
        ]
      }
    },
    {
      "type": "Feature",
      "geometry": {
        "type": "Point",
        "coordinates": [
          70.116,
          21.12
        ]
      },
      "properties": {
        "name": "Mangrol Fishing Harbor",
        "harbour_type": "Fishing Harbor",
        "state": "Gujarat",
        "coordinates": [
          70.116,
          21.12
        ]
      }
    },
    {
      "type": "Feature",
      "geometry": {
        "type": "Point",
        "coordinates": [
          68.705,
          23.235
        ]
      },
      "properties": {
        "name": "Jakhau Fishery Port",
        "harbour_type": "Border Fishing Harbor",
        "state": "Gujarat",
        "coordinates": [
          68.705,
          23.235
        ]
      }
    },
    {
      "type": "Feature",
      "geometry": {
        "type": "Point",
        "coordinates": [
          70.22,
          23.005
        ]
      },
      "properties": {
        "name": "Deendayal Port (Kandla)",
        "harbour_type": "Major Commercial Port",
        "state": "Gujarat",
        "coordinates": [
          70.22,
          23.005
        ]
      }
    },
    {
      "type": "Feature",
      "geometry": {
        "type": "Point",
        "coordinates": [
          72.825,
          18.915
        ]
      },
      "properties": {
        "name": "Sassoon Dock Fishing Harbor",
        "harbour_type": "Major Fishing Harbor",
        "state": "Maharashtra",
        "coordinates": [
          72.825,
          18.915
        ]
      }
    },
    {
      "type": "Feature",
      "geometry": {
        "type": "Point",
        "coordinates": [
          72.848,
          18.956
        ]
      },
      "properties": {
        "name": "Bhaucha Dhakka (Ferry Wharf)",
        "harbour_type": "Ferry Terminal & Wholesale Harbor",
        "state": "Maharashtra",
        "coordinates": [
          72.848,
          18.956
        ]
      }
    },
    {
      "type": "Feature",
      "geometry": {
        "type": "Point",
        "coordinates": [
          73.275,
          16.995
        ]
      },
      "properties": {
        "name": "Mirkarwada Fishing Harbor (Ratnagiri)",
        "harbour_type": "Major Fishing Harbor",
        "state": "Maharashtra",
        "coordinates": [
          73.275,
          16.995
        ]
      }
    },
    {
      "type": "Feature",
      "geometry": {
        "type": "Point",
        "coordinates": [
          73.465,
          16.058
        ]
      },
      "properties": {
        "name": "Malvan Dhuriwada Jetty",
        "harbour_type": "Coastal Landing Jetty",
        "state": "Maharashtra",
        "coordinates": [
          73.465,
          16.058
        ]
      }
    },
    {
      "type": "Feature",
      "geometry": {
        "type": "Point",
        "coordinates": [
          72.95,
          18.95
        ]
      },
      "properties": {
        "name": "JNPT / Nhava Sheva",
        "harbour_type": "Major Container Port",
        "state": "Maharashtra",
        "coordinates": [
          72.95,
          18.95
        ]
      }
    },
    {
      "type": "Feature",
      "geometry": {
        "type": "Point",
        "coordinates": [
          73.96,
          15.145
        ]
      },
      "properties": {
        "name": "Cutbona Fishing Jetty",
        "harbour_type": "Major Fishing Jetty",
        "state": "Goa",
        "coordinates": [
          73.96,
          15.145
        ]
      }
    },
    {
      "type": "Feature",
      "geometry": {
        "type": "Point",
        "coordinates": [
          73.8,
          15.415
        ]
      },
      "properties": {
        "name": "Mormugao Port",
        "harbour_type": "Major Commercial Port",
        "state": "Goa",
        "coordinates": [
          73.8,
          15.415
        ]
      }
    },
    {
      "type": "Feature",
      "geometry": {
        "type": "Point",
        "coordinates": [
          74.698,
          13.355
        ]
      },
      "properties": {
        "name": "Malpe Fishing Harbor",
        "harbour_type": "Major Fishing Harbor",
        "state": "Karnataka",
        "coordinates": [
          74.698,
          13.355
        ]
      }
    },
    {
      "type": "Feature",
      "geometry": {
        "type": "Point",
        "coordinates": [
          74.832,
          12.855
        ]
      },
      "properties": {
        "name": "Mangalore Old Bunder Harbor",
        "harbour_type": "Major Fishing Harbor",
        "state": "Karnataka",
        "coordinates": [
          74.832,
          12.855
        ]
      }
    },
    {
      "type": "Feature",
      "geometry": {
        "type": "Point",
        "coordinates": [
          74.45,
          14.28
        ]
      },
      "properties": {
        "name": "Honnavar Jetty",
        "harbour_type": "Coastal Landing Jetty",
        "state": "Karnataka",
        "coordinates": [
          74.45,
          14.28
        ]
      }
    },
    {
      "type": "Feature",
      "geometry": {
        "type": "Point",
        "coordinates": [
          76.262,
          9.942
        ]
      },
      "properties": {
        "name": "Cochin Fishing Harbor (Thoppumpady)",
        "harbour_type": "Major Fishing Harbor",
        "state": "Kerala",
        "coordinates": [
          76.262,
          9.942
        ]
      }
    },
    {
      "type": "Feature",
      "geometry": {
        "type": "Point",
        "coordinates": [
          76.176,
          10.182
        ]
      },
      "properties": {
        "name": "Munambam Harbor",
        "harbour_type": "Major Fishing Harbor",
        "state": "Kerala",
        "coordinates": [
          76.176,
          10.182
        ]
      }
    },
    {
      "type": "Feature",
      "geometry": {
        "type": "Point",
        "coordinates": [
          76.538,
          8.938
        ]
      },
      "properties": {
        "name": "Neendakara Trawling Harbor",
        "harbour_type": "Major Trawling Harbor",
        "state": "Kerala",
        "coordinates": [
          76.538,
          8.938
        ]
      }
    },
    {
      "type": "Feature",
      "geometry": {
        "type": "Point",
        "coordinates": [
          76.988,
          8.375
        ]
      },
      "properties": {
        "name": "Vizhinjam Fishing Harbor",
        "harbour_type": "Deepwater & Fishing Harbor",
        "state": "Kerala",
        "coordinates": [
          76.988,
          8.375
        ]
      }
    },
    {
      "type": "Feature",
      "geometry": {
        "type": "Point",
        "coordinates": [
          75.805,
          11.16
        ]
      },
      "properties": {
        "name": "Beypore Port & Harbor",
        "harbour_type": "Fishing & Cargo Harbor",
        "state": "Kerala",
        "coordinates": [
          75.805,
          11.16
        ]
      }
    },
    {
      "type": "Feature",
      "geometry": {
        "type": "Point",
        "coordinates": [
          80.298,
          13.128
        ]
      },
      "properties": {
        "name": "Kasimedu Fishing Harbor (Chennai)",
        "harbour_type": "Major Fishing Harbor",
        "state": "Tamil Nadu",
        "coordinates": [
          80.298,
          13.128
        ]
      }
    },
    {
      "type": "Feature",
      "geometry": {
        "type": "Point",
        "coordinates": [
          78.16,
          8.8
        ]
      },
      "properties": {
        "name": "Thoothukudi (Tuticorin) Fishing Harbor",
        "harbour_type": "Major Fishing Harbor",
        "state": "Tamil Nadu",
        "coordinates": [
          78.16,
          8.8
        ]
      }
    },
    {
      "type": "Feature",
      "geometry": {
        "type": "Point",
        "coordinates": [
          79.315,
          9.285
        ]
      },
      "properties": {
        "name": "Rameswaram Fishing Jetty",
        "harbour_type": "Palk Strait Landing Jetty",
        "state": "Tamil Nadu",
        "coordinates": [
          79.315,
          9.285
        ]
      }
    },
    {
      "type": "Feature",
      "geometry": {
        "type": "Point",
        "coordinates": [
          79.845,
          10.765
        ]
      },
      "properties": {
        "name": "Nagapattinam Fishing Harbor",
        "harbour_type": "Major Fishing Harbor",
        "state": "Tamil Nadu",
        "coordinates": [
          79.845,
          10.765
        ]
      }
    },
    {
      "type": "Feature",
      "geometry": {
        "type": "Point",
        "coordinates": [
          77.55,
          8.08
        ]
      },
      "properties": {
        "name": "Kanyakumari Harbor",
        "harbour_type": "Ferry Terminal & Harbor",
        "state": "Tamil Nadu",
        "coordinates": [
          77.55,
          8.08
        ]
      }
    },
    {
      "type": "Feature",
      "geometry": {
        "type": "Point",
        "coordinates": [
          83.298,
          17.698
        ]
      },
      "properties": {
        "name": "Visakhapatnam Fishing Harbor",
        "harbour_type": "Major Fishing Harbor",
        "state": "Andhra Pradesh",
        "coordinates": [
          83.298,
          17.698
        ]
      }
    },
    {
      "type": "Feature",
      "geometry": {
        "type": "Point",
        "coordinates": [
          82.265,
          16.985
        ]
      },
      "properties": {
        "name": "Kakinada Fishing Harbor",
        "harbour_type": "Fishing Harbor & Port",
        "state": "Andhra Pradesh",
        "coordinates": [
          82.265,
          16.985
        ]
      }
    },
    {
      "type": "Feature",
      "geometry": {
        "type": "Point",
        "coordinates": [
          81.16,
          16.18
        ]
      },
      "properties": {
        "name": "Machilipatnam Harbor",
        "harbour_type": "Fishing Harbor",
        "state": "Andhra Pradesh",
        "coordinates": [
          81.16,
          16.18
        ]
      }
    },
    {
      "type": "Feature",
      "geometry": {
        "type": "Point",
        "coordinates": [
          86.685,
          20.298
        ]
      },
      "properties": {
        "name": "Paradip Fishing Harbor",
        "harbour_type": "Major Fishing Harbor",
        "state": "Odisha",
        "coordinates": [
          86.685,
          20.298
        ]
      }
    },
    {
      "type": "Feature",
      "geometry": {
        "type": "Point",
        "coordinates": [
          86.96,
          20.8
        ]
      },
      "properties": {
        "name": "Dhamra Port & Harbor",
        "harbour_type": "Commercial Port & Harbor",
        "state": "Odisha",
        "coordinates": [
          86.96,
          20.8
        ]
      }
    },
    {
      "type": "Feature",
      "geometry": {
        "type": "Point",
        "coordinates": [
          87.565,
          21.63
        ]
      },
      "properties": {
        "name": "Sankarpur / Digha Harbor",
        "harbour_type": "Major Fishing Harbor",
        "state": "West Bengal",
        "coordinates": [
          87.565,
          21.63
        ]
      }
    },
    {
      "type": "Feature",
      "geometry": {
        "type": "Point",
        "coordinates": [
          92.735,
          11.672
        ]
      },
      "properties": {
        "name": "Port Blair Phoenix Bay Jetty",
        "harbour_type": "Island Port & Ferry Terminal",
        "state": "Andaman & Nicobar",
        "coordinates": [
          92.735,
          11.672
        ]
      }
    }
  ]
}