{
  "type": "FeatureCollection",
  "name": "Indian_Coast_Guard_Stations_and_Rescue_Centres",
  "crs": {
    "type": "name",
    "properties": {
      "name": "urn:ogc:def:crs:OGC:1.3:CRS84"
    }
  },
  "features": [
    {
      "type": "Feature",
      "geometry": {
        "type": "Point",
        "coordinates": [
          72.815,
          19.015
        ]
      },
      "properties": {
        "cg_id": "CG-RHQ-WEST",
        "name": "Indian Coast Guard Regional HQ (West)",
        "location": "Worli, Mumbai",
        "state": "Maharashtra",
        "station_type": "REGIONAL_HEADQUARTERS",
        "radio_callsign": "COAST GUARD MUMBAI",
        "vhf_emergency_channel": 16,
        "operational_capabilities": "Fast Patrol Vessels, Offshore Patrol Vessels, Air Station"
      }
    },
    {
      "type": "Feature",
      "geometry": {
        "type": "Point",
        "coordinates": [
          80.29,
          13.085
        ]
      },
      "properties": {
        "cg_id": "CG-RHQ-EAST",
        "name": "Indian Coast Guard Regional HQ (East)",
        "location": "Chennai",
        "state": "Tamil Nadu",
        "station_type": "REGIONAL_HEADQUARTERS",
        "radio_callsign": "COAST GUARD CHENNAI",
        "vhf_emergency_channel": 16,
        "operational_capabilities": "Maritime Rescue Coordination Centre (MRCC), Dornier Squadron"
      }
    },
    {
      "type": "Feature",
      "geometry": {
        "type": "Point",
        "coordinates": [
          72.635,
          23.215
        ]
      },
      "properties": {
        "cg_id": "CG-RHQ-NW",
        "name": "Indian Coast Guard Regional HQ (North-West)",
        "location": "Gandhinagar",
        "state": "Gujarat",
        "station_type": "REGIONAL_HEADQUARTERS",
        "radio_callsign": "COAST GUARD GANDHINAGAR",
        "vhf_emergency_channel": 16,
        "operational_capabilities": "Border Surveillance, Sir Creek Interceptor Boats"
      }
    },
    {
      "type": "Feature",
      "geometry": {
        "type": "Point",
        "coordinates": [
          88.36,
          22.57
        ]
      },
      "properties": {
        "cg_id": "CG-RHQ-NE",
        "name": "Indian Coast Guard Regional HQ (North-East)",
        "location": "Kolkata",
        "state": "West Bengal",
        "station_type": "REGIONAL_HEADQUARTERS",
        "radio_callsign": "COAST GUARD KOLKATA",
        "vhf_emergency_channel": 16,
        "operational_capabilities": "Bay of Bengal MRCC, Hovercraft Squadron"
      }
    },
    {
      "type": "Feature",
      "geometry": {
        "type": "Point",
        "coordinates": [
          92.74,
          11.665
        ]
      },
      "properties": {
        "cg_id": "CG-RHQ-AN",
        "name": "Indian Coast Guard Regional HQ (A & N)",
        "location": "Port Blair",
        "state": "Andaman & Nicobar",
        "station_type": "REGIONAL_HEADQUARTERS",
        "radio_callsign": "COAST GUARD PORT BLAIR",
        "vhf_emergency_channel": 16,
        "operational_capabilities": "Island Security Fleet, Malacca Strait Patrol"
      }
    },
    {
      "type": "Feature",
      "geometry": {
        "type": "Point",
        "coordinates": [
          69.072,
          22.468
        ]
      },
      "properties": {
        "cg_id": "CG-DHQ-OKHA",
        "name": "ICGS Okha (District HQ 1)",
        "location": "Okha",
        "state": "Gujarat",
        "station_type": "DISTRICT_HEADQUARTERS",
        "radio_callsign": "COAST GUARD OKHA",
        "vhf_emergency_channel": 16,
        "operational_capabilities": "High-Speed Interceptor Boats, Hovercraft"
      }
    },
    {
      "type": "Feature",
      "geometry": {
        "type": "Point",
        "coordinates": [
          70.365,
          20.905
        ]
      },
      "properties": {
        "cg_id": "CG-DHQ-VERAVAL",
        "name": "ICGS Veraval",
        "location": "Veraval",
        "state": "Gujarat",
        "station_type": "COAST_GUARD_STATION",
        "radio_callsign": "COAST GUARD VERAVAL",
        "vhf_emergency_channel": 16,
        "operational_capabilities": "Fast Interceptor Crafts"
      }
    },
    {
      "type": "Feature",
      "geometry": {
        "type": "Point",
        "coordinates": [
          79.125,
          9.278
        ]
      },
      "properties": {
        "cg_id": "CG-DHQ-MANDAPAM",
        "name": "ICGS Mandapam (Palk Bay Base)",
        "location": "Mandapam",
        "state": "Tamil Nadu",
        "station_type": "COAST_GUARD_STATION",
        "radio_callsign": "COAST GUARD MANDAPAM",
        "vhf_emergency_channel": 16,
        "operational_capabilities": "Hovercraft Squadron, IMBL Drone Surveillance"
      }
    },
    {
      "type": "Feature",
      "geometry": {
        "type": "Point",
        "coordinates": [
          78.188,
          8.752
        ]
      },
      "properties": {
        "cg_id": "CG-DHQ-TUTICORIN",
        "name": "ICGS Tuticorin",
        "location": "Thoothukudi",
        "state": "Tamil Nadu",
        "station_type": "COAST_GUARD_STATION",
        "radio_callsign": "COAST GUARD TUTICORIN",
        "vhf_emergency_channel": 16,
        "operational_capabilities": "Offshore Patrol Vessels"
      }
    },
    {
      "type": "Feature",
      "geometry": {
        "type": "Point",
        "coordinates": [
          76.275,
          9.955
        ]
      },
      "properties": {
        "cg_id": "CG-DHQ-KOCHI",
        "name": "ICGS Kochi (District HQ 4)",
        "location": "Kochi",
        "state": "Kerala",
        "station_type": "DISTRICT_HEADQUARTERS",
        "radio_callsign": "COAST GUARD KOCHI",
        "vhf_emergency_channel": 16,
        "operational_capabilities": "MRCC Kochi, Aviation Enclave"
      }
    },
    {
      "type": "Feature",
      "geometry": {
        "type": "Point",
        "coordinates": [
          86.688,
          20.302
        ]
      },
      "properties": {
        "cg_id": "CG-DHQ-PARADIP",
        "name": "ICGS Paradip (District HQ 7)",
        "location": "Paradip",
        "state": "Odisha",
        "station_type": "DISTRICT_HEADQUARTERS",
        "radio_callsign": "COAST GUARD PARADIP",
        "vhf_emergency_channel": 16,
        "operational_capabilities": "Olive Ridley Operation 'Olivia' Fleet"
      }
    }
  ]
}