{
  "type": "FeatureCollection",
  "name": "Indian_Critical_Marine_Habitats",
  "crs": {
    "type": "name",
    "properties": {
      "name": "urn:ogc:def:crs:OGC:1.3:CRS84"
    }
  },
  "features": [
    {
      "type": "Feature",
      "geometry": {
        "type": "Polygon",
        "coordinates": [
          [
            [
              78.7,
              9.15
            ],
            [
              79.2,
              9.2
            ],
            [
              79.1,
              8.8
            ],
            [
              78.6,
              8.75
            ],
            [
              78.7,
              9.15
            ]
          ]
        ]
      },
      "properties": {
        "habitat_id": "HAB-CORAL-GOM",
        "name": "Gulf of Mannar Coral Reef Ecosystem",
        "ecosystem_type": "Coral Reef & Seagrass",
        "conservation_priority": "CRITICAL",
        "key_taxa": "Hard Corals, Dugong dugon, Holothurians, Green Turtles"
      }
    },
    {
      "type": "Feature",
      "geometry": {
        "type": "Polygon",
        "coordinates": [
          [
            [
              88.4,
              21.9
            ],
            [
              89.1,
              21.9
            ],
            [
              89.1,
              21.45
            ],
            [
              88.4,
              21.45
            ],
            [
              88.4,
              21.9
            ]
          ]
        ]
      },
      "properties": {
        "habitat_id": "HAB-MANGROVE-SUN",
        "name": "Sundarbans Delta Marine Estuary",
        "ecosystem_type": "Mangrove Nursery & Estuary",
        "conservation_priority": "CRITICAL",
        "key_taxa": "Tenualosa ilisha, Saltwater Crocodile, Mangrove Horseshoe Crab"
      }
    },
    {
      "type": "Feature",
      "geometry": {
        "type": "Polygon",
        "coordinates": [
          [
            [
              86.75,
              20.85
            ],
            [
              87.15,
              20.85
            ],
            [
              87.15,
              20.3
            ],
            [
              86.7,
              20.3
            ],
            [
              86.75,
              20.85
            ]
          ]
        ]
      },
      "properties": {
        "habitat_id": "HAB-TURTLE-GAH",
        "name": "Gahirmatha Olive Ridley Mass Nesting Corridor",
        "ecosystem_type": "Marine Turtle Mass Rookery",
        "conservation_priority": "STRICT_SANCTUARY",
        "key_taxa": "Lepidochelys olivacea"
      }
    },
    {
      "type": "Feature",
      "geometry": {
        "type": "Polygon",
        "coordinates": [
          [
            [
              71.8,
              11.2
            ],
            [
              73.2,
              11.2
            ],
            [
              73.2,
              9.8
            ],
            [
              71.8,
              9.8
            ],
            [
              71.8,
              11.2
            ]
          ]
        ]
      },
      "properties": {
        "habitat_id": "HAB-CORAL-LAK",
        "name": "Lakshadweep Atoll Reef Systems",
        "ecosystem_type": "Oceanic Atoll Corals",
        "conservation_priority": "HIGH",
        "key_taxa": "Skipjack Tuna, Acropora Corals, Manta Rays"
      }
    }
  ]
}