{
  "type": "FeatureCollection",
  "name": "India_International_Maritime_Boundary_Lines",
  "crs": {
    "type": "name",
    "properties": {
      "name": "urn:ogc:def:crs:OGC:1.3:CRS84"
    }
  },
  "features": [
    {
      "type": "Feature",
      "properties": {
        "boundary_id": "IMBL-IND-LKA-01",
        "name": "India - Sri Lanka Maritime Boundary (Palk Strait & Gulf of Mannar)",
        "country_a": "India",
        "country_b": "Sri Lanka",
        "treaty_reference": "1974 & 1976 Indo-Sri Lankan Maritime Agreements",
        "severity_level": "CRITICAL_BORDER",
        "buffer_alert_km": 10.0,
        "notes": "Strict crossing prohibition. Extreme risk of arrest by Sri Lankan Navy."
      },
      "geometry": {
        "type": "LineString",
        "coordinates": [
          [
            79.9167,
            10.0833
          ],
          [
            79.7833,
            9.9833
          ],
          [
            79.6833,
            9.85
          ],
          [
            79.5333,
            9.7
          ],
          [
            79.4333,
            9.5333
          ],
          [
            79.3667,
            9.4
          ],
          [
            79.3167,
            9.2167
          ],
          [
            79.35,
            9.1
          ],
          [
            79.3833,
            8.9167
          ],
          [
            79.4,
            8.7
          ],
          [
            79.25,
            8.4333
          ],
          [
            79.05,
            8.2
          ],
          [
            78.75,
            7.9
          ],
          [
            77.75,
            6.0
          ]
        ]
      }
    },
    {
      "type": "Feature",
      "properties": {
        "boundary_id": "IMBL-IND-PAK-02",
        "name": "India - Pakistan Maritime Boundary (Sir Creek / Arabian Sea Sector)",
        "country_a": "India",
        "country_b": "Pakistan",
        "treaty_reference": "UNCLOS / Sir Creek Maritime Sector",
        "severity_level": "CRITICAL_BORDER",
        "buffer_alert_km": 15.0,
        "notes": "High conflict risk. Strict Indian Coast Guard patrolling zone."
      },
      "geometry": {
        "type": "LineString",
        "coordinates": [
          [
            68.1667,
            23.6333
          ],
          [
            67.85,
            23.5
          ],
          [
            67.5,
            23.3
          ],
          [
            67.0,
            23.0
          ],
          [
            66.0,
            22.5
          ],
          [
            65.0,
            22.0
          ],
          [
            63.5,
            21.0
          ]
        ]
      }
    },
    {
      "type": "Feature",
      "properties": {
        "boundary_id": "IMBL-IND-BGD-03",
        "name": "India - Bangladesh Maritime Delimitation Line",
        "country_a": "India",
        "country_b": "Bangladesh",
        "treaty_reference": "2014 ITLOS Bay of Bengal Maritime Award",
        "severity_level": "REGULATED_BORDER",
        "buffer_alert_km": 8.0,
        "notes": "Delimited economic zone border."
      },
      "geometry": {
        "type": "LineString",
        "coordinates": [
          [
            89.15,
            21.65
          ],
          [
            89.2,
            21.3
          ],
          [
            89.25,
            20.9
          ],
          [
            89.4,
            20.2
          ],
          [
            89.6,
            19.3
          ],
          [
            90.0,
            18.0
          ]
        ]
      }
    }
  ]
}