{
  "type": "FeatureCollection",
  "name": "Indian_Exclusive_Economic_Zones",
  "crs": {
    "type": "name",
    "properties": {
      "name": "urn:ogc:def:crs:OGC:1.3:CRS84"
    }
  },
  "features": [
    {
      "type": "Feature",
      "properties": {
        "eez_id": "EEZ-IND-MAINLAND",
        "name": "Indian Mainland Exclusive Economic Zone (EEZ)",
        "sovereignty": "Republic of India",
        "area_sq_km": 1400000,
        "max_distance_nm": 200
      },
      "geometry": {
        "type": "Polygon",
        "coordinates": [
          [
            [
              68.16,
              23.63
            ],
            [
              65.0,
              22.0
            ],
            [
              63.5,
              21.0
            ],
            [
              64.0,
              18.0
            ],
            [
              66.0,
              14.0
            ],
            [
              68.0,
              10.0
            ],
            [
              71.5,
              7.0
            ],
            [
              75.0,
              5.0
            ],
            [
              77.75,
              6.0
            ],
            [
              80.5,
              8.5
            ],
            [
              84.0,
              12.0
            ],
            [
              87.5,
              16.0
            ],
            [
              89.5,
              19.0
            ],
            [
              89.15,
              21.65
            ],
            [
              87.0,
              21.5
            ],
            [
              83.3,
              17.7
            ],
            [
              80.3,
              13.1
            ],
            [
              79.8,
              10.3
            ],
            [
              77.55,
              8.08
            ],
            [
              76.2,
              9.95
            ],
            [
              74.8,
              12.85
            ],
            [
              73.8,
              15.45
            ],
            [
              72.85,
              18.95
            ],
            [
              70.36,
              20.9
            ],
            [
              69.0,
              22.25
            ],
            [
              68.16,
              23.63
            ]
          ]
        ]
      }
    },
    {
      "type": "Feature",
      "properties": {
        "eez_id": "EEZ-IND-ANDAMAN",
        "name": "Andaman and Nicobar Islands EEZ",
        "sovereignty": "Republic of India",
        "area_sq_km": 600000,
        "max_distance_nm": 200
      },
      "geometry": {
        "type": "Polygon",
        "coordinates": [
          [
            [
              91.5,
              14.0
            ],
            [
              94.5,
              14.0
            ],
            [
              95.0,
              11.0
            ],
            [
              94.8,
              7.0
            ],
            [
              93.8,
              6.0
            ],
            [
              92.0,
              7.0
            ],
            [
              91.0,
              10.0
            ],
            [
              91.5,
              14.0
            ]
          ]
        ]
      }
    }
  ]
}