{
  "type": "FeatureCollection",
  "name": "marine_weather_grid",
  "crs": {
    "type": "name",
    "properties": {
      "name": "urn:ogc:def:crs:OGC:1.3:CRS84"
    }
  },
  "features": [
    {
      "type": "Feature",
      "geometry": {
        "type": "Point",
        "coordinates": [
          70.36,
          20.9
        ]
      },
      "properties": {
        "name": "Veraval",
        "state": "Gujarat",
        "sector": "North-West Arabian Sea",
        "wave_height": 1.72,
        "wave_period": 7.5,
        "wind_speed": 18.0,
        "surface_pressure": 1007.8,
        "current_velocity": 0.48,
        "warning_level": "YELLOW (Precautionary Advisory)"
      }
    },
    {
      "type": "Feature",
      "geometry": {
        "type": "Point",
        "coordinates": [
          72.83,
          18.92
        ]
      },
      "properties": {
        "name": "Mumbai",
        "state": "Maharashtra",
        "sector": "Konkan Coast",
        "wave_height": 1.78,
        "wave_period": 7.25,
        "wind_speed": 13.5,
        "surface_pressure": 1008.7,
        "current_velocity": 1.5,
        "warning_level": "GREEN"
      }
    },
    {
      "type": "Feature",
      "geometry": {
        "type": "Point",
        "coordinates": [
          73.28,
          16.99
        ]
      },
      "properties": {
        "name": "Ratnagiri",
        "state": "Maharashtra",
        "sector": "Central Konkan Coast",
        "wave_height": 1.62,
        "wave_period": 7.5,
        "wind_speed": 4.4,
        "surface_pressure": 1011.9,
        "current_velocity": 0.49,
        "warning_level": "GREEN"
      }
    },
    {
      "type": "Feature",
      "geometry": {
        "type": "Point",
        "coordinates": [
          74.84,
          12.86
        ]
      },
      "properties": {
        "name": "Mangalore",
        "state": "Karnataka",
        "sector": "Canara Coast",
        "wave_height": 1.52,
        "wave_period": 7.5,
        "wind_speed": 5.0,
        "surface_pressure": 1010.4,
        "current_velocity": 0.49,
        "warning_level": "GREEN"
      }
    },
    {
      "type": "Feature",
      "geometry": {
        "type": "Point",
        "coordinates": [
          76.26,
          9.94
        ]
      },
      "properties": {
        "name": "Kochi",
        "state": "Kerala",
        "sector": "Malabar Coast",
        "wave_height": 1.3,
        "wave_period": 9.3,
        "wind_speed": 3.9,
        "surface_pressure": 1013.2,
        "current_velocity": 0.5,
        "warning_level": "GREEN"
      }
    },
    {
      "type": "Feature",
      "geometry": {
        "type": "Point",
        "coordinates": [
          78.16,
          8.8
        ]
      },
      "properties": {
        "name": "Tuticorin",
        "state": "Tamil Nadu",
        "sector": "Gulf of Mannar",
        "wave_height": 1.06,
        "wave_period": 8.15,
        "wind_speed": 18.7,
        "surface_pressure": 1011.4,
        "current_velocity": 0.6,
        "warning_level": "YELLOW (Precautionary Advisory)"
      }
    },
    {
      "type": "Feature",
      "geometry": {
        "type": "Point",
        "coordinates": [
          80.3,
          13.13
        ]
      },
      "properties": {
        "name": "Chennai",
        "state": "Tamil Nadu",
        "sector": "Coromandel Coast",
        "wave_height": 0.8,
        "wave_period": 6.85,
        "wind_speed": 9.3,
        "surface_pressure": 1009.3,
        "current_velocity": 0.8,
        "warning_level": "GREEN"
      }
    },
    {
      "type": "Feature",
      "geometry": {
        "type": "Point",
        "coordinates": [
          83.3,
          17.7
        ]
      },
      "properties": {
        "name": "Visakhapatnam",
        "state": "Andhra Pradesh",
        "sector": "Northern Circars",
        "wave_height": 1.3,
        "wave_period": 9.1,
        "wind_speed": 13.0,
        "surface_pressure": 1004.6,
        "current_velocity": 0.4,
        "warning_level": "ORANGE (Squall / Rough Sea Warning)"
      }
    },
    {
      "type": "Feature",
      "geometry": {
        "type": "Point",
        "coordinates": [
          86.69,
          20.3
        ]
      },
      "properties": {
        "name": "Paradip",
        "state": "Odisha",
        "sector": "North-East Bay of Bengal",
        "wave_height": 1.54,
        "wave_period": 9.1,
        "wind_speed": 10.4,
        "surface_pressure": 1003.6,
        "current_velocity": 0.8,
        "warning_level": "ORANGE (Squall / Rough Sea Warning)"
      }
    },
    {
      "type": "Feature",
      "geometry": {
        "type": "Point",
        "coordinates": [
          92.74,
          11.67
        ]
      },
      "properties": {
        "name": "Port Blair",
        "state": "Andaman & Nicobar",
        "sector": "Andaman Sea",
        "wave_height": 1.04,
        "wave_period": 5.7,
        "wind_speed": 20.2,
        "surface_pressure": 1009.6,
        "current_velocity": 0.6,
        "warning_level": "ORANGE (Squall / Rough Sea Warning)"
      }
    }
  ]
}