{
  "type": "FeatureCollection",
  "name": "Indian_Marine_Protected_Areas",
  "crs": {
    "type": "name",
    "properties": {
      "name": "urn:ogc:def:crs:OGC:1.3:CRS84"
    }
  },
  "features": [
    {
      "type": "Feature",
      "properties": {
        "mpa_id": "MPA-TAM-01",
        "name": "Gulf of Mannar Marine National Park & Biosphere Reserve",
        "state": "Tamil Nadu",
        "category": "NO_FISHING_CORE_ZONE",
        "legal_act": "Wildlife (Protection) Act, 1972",
        "prohibited_activities": [
          "Mechanized Trawling",
          "Coral Extraction",
          "Spearfishing"
        ],
        "penalties": "Vessel seizure, cancellation of diesel subsidy, imprisonment up to 7 years",
        "buffer_km": 5.0
      },
      "geometry": {
        "type": "Polygon",
        "coordinates": [
          [
            [
              78.9,
              9.25
            ],
            [
              79.25,
              9.25
            ],
            [
              79.15,
              8.85
            ],
            [
              78.75,
              8.7
            ],
            [
              78.6,
              9.0
            ],
            [
              78.9,
              9.25
            ]
          ]
        ]
      }
    },
    {
      "type": "Feature",
      "properties": {
        "mpa_id": "MPA-GUJ-02",
        "name": "Marine National Park & Sanctuary, Gulf of Kutch",
        "state": "Gujarat",
        "category": "NO_FISHING_CORE_ZONE",
        "legal_act": "Wildlife (Protection) Act, 1972",
        "prohibited_activities": [
          "Bottom Trawling",
          "Mangrove cutting",
          "Commercial netting"
        ],
        "penalties": "Heavy fines and vessel confiscation by Gujarat Forest Dept",
        "buffer_km": 3.0
      },
      "geometry": {
        "type": "Polygon",
        "coordinates": [
          [
            [
              69.1,
              22.45
            ],
            [
              70.15,
              22.8
            ],
            [
              70.3,
              22.65
            ],
            [
              69.45,
              22.3
            ],
            [
              69.1,
              22.45
            ]
          ]
        ]
      }
    },
    {
      "type": "Feature",
      "properties": {
        "mpa_id": "MPA-ODI-03",
        "name": "Gahirmatha Marine Sanctuary (Olive Ridley Nesting Zone)",
        "state": "Odisha",
        "category": "SEASONAL_NO_FISHING_ZONE",
        "legal_act": "Odisha Marine Fishing Regulation Act (OMFRA)",
        "seasonal_restriction": "November 1 to May 31 (Strict Trawl Ban within 20 km of coast)",
        "prohibited_activities": [
          "All mechanized fishing",
          "Uncertified gill nets"
        ],
        "buffer_km": 10.0
      },
      "geometry": {
        "type": "Polygon",
        "coordinates": [
          [
            [
              86.75,
              20.85
            ],
            [
              87.15,
              20.85
            ],
            [
              87.15,
              20.3
            ],
            [
              86.7,
              20.3
            ],
            [
              86.75,
              20.85
            ]
          ]
        ]
      }
    },
    {
      "type": "Feature",
      "properties": {
        "mpa_id": "MPA-MAH-04",
        "name": "Malvan Marine Sanctuary",
        "state": "Maharashtra",
        "category": "CONSERVATION_ZONE",
        "legal_act": "Wildlife (Protection) Act, 1972",
        "prohibited_activities": [
          "Purse-seine fishing",
          "Dynamite fishing",
          "Trawling"
        ],
        "buffer_km": 2.0
      },
      "geometry": {
        "type": "Polygon",
        "coordinates": [
          [
            [
              73.4,
              16.08
            ],
            [
              73.52,
              16.08
            ],
            [
              73.52,
              15.98
            ],
            [
              73.4,
              15.98
            ],
            [
              73.4,
              16.08
            ]
          ]
        ]
      }
    },
    {
      "type": "Feature",
      "properties": {
        "mpa_id": "MPA-WBE-05",
        "name": "Sundarbans National Park & Estuarine Marine Reserve",
        "state": "West Bengal",
        "category": "BIOSPHERE_CORE_RESERVE",
        "legal_act": "Indian Forest Act / Project Tiger Reserve",
        "prohibited_activities": [
          "Unlicensed fishing",
          "Monofilament nets"
        ],
        "buffer_km": 5.0
      },
      "geometry": {
        "type": "Polygon",
        "coordinates": [
          [
            [
              88.5,
              21.8
            ],
            [
              89.15,
              21.8
            ],
            [
              89.15,
              21.5
            ],
            [
              88.5,
              21.5
            ],
            [
              88.5,
              21.8
            ]
          ]
        ]
      }
    }
  ]
}