{
  "type": "FeatureCollection",
  "name": "Indian_Marine_Weather_Hazard_Alerts",
  "crs": {
    "type": "name",
    "properties": {
      "name": "urn:ogc:def:crs:OGC:1.3:CRS84"
    }
  },
  "features": [
    {
      "type": "Feature",
      "geometry": {
        "type": "Polygon",
        "coordinates": [
          [
            [
              86.2,
              21.8
            ],
            [
              89.5,
              21.8
            ],
            [
              90.0,
              19.5
            ],
            [
              86.5,
              19.5
            ],
            [
              86.2,
              21.8
            ]
          ]
        ]
      },
      "properties": {
        "hazard_id": "HAZ-BOB-SQUALL-01",
        "title": "North Bay of Bengal Squall & High Wave Warning Zone",
        "hazard_type": "SQUALLY_WEATHER_LOW_PRESSURE",
        "severity": "ORANGE_ALERT",
        "issued_by": "India Meteorological Department (IMD) / INCOIS",
        "valid_from": "2026-08-27T16:14:43.203517+00:00",
        "valid_until": "2026-08-29T16:14:43.203517+00:00",
        "max_wave_height_m": 3.8,
        "gust_speed_knots": 38.0,
        "safety_directive": "Total suspension of artisanal fishing. Deep-sea trawlers advised to seek immediate shelter at Paradip or Dhamra harbors."
      }
    },
    {
      "type": "Feature",
      "geometry": {
        "type": "Polygon",
        "coordinates": [
          [
            [
              75.5,
              10.5
            ],
            [
              77.2,
              10.5
            ],
            [
              77.9,
              7.8
            ],
            [
              76.5,
              7.8
            ],
            [
              75.5,
              10.5
            ]
          ]
        ]
      },
      "properties": {
        "hazard_id": "HAZ-KER-SWELL-02",
        "title": "South Kerala & Kanyakumari Swell Surge Watch Zone",
        "hazard_type": "SWELL_SURGE_KALLAKKADAL",
        "severity": "YELLOW_WATCH",
        "issued_by": "INCOIS Ocean State Forecast Division",
        "valid_from": "2026-08-27T16:14:43.203517+00:00",
        "valid_until": "2026-08-28T16:14:43.203517+00:00",
        "max_wave_height_m": 2.6,
        "gust_speed_knots": 26.0,
        "safety_directive": "Nearshore low-lying beaches vulnerable to sudden surging waves. Secure fishing gear and small vessels on elevated berths."
      }
    }
  ]
}